CCSDS_OMM_VERS = 2.0
CREATION_DATE  = 
ORIGINATOR     = 

OBJECT_NAME    = UNKNOWN
OBJECT_ID      = 
CENTER_NAME    = EARTH
REF_FRAME      = TEME
TIME_SYSTEM    = UTC
MEAN_ELEMENT_THEORY = SGP/SGP4

EPOCH          = 2025-11-26T13:06:40.460832
MEAN_MOTION    = 13.21024355
ECCENTRICITY   = .00225829
INCLINATION    = 82.5469
RA_OF_ASC_NODE = 271.3363
ARG_OF_PERICENTER = 210.2399
MEAN_ANOMALY   = 149.7424

EPHEMERIS_TYPE = 0
CLASSIFICATION_TYPE = U
NORAD_CAT_ID   = 270349
ELEMENT_SET_NO = 999
REV_AT_EPOCH   = 17907
BSTAR          = .25250515E-3
MEAN_MOTION_DOT = .116E-5
MEAN_MOTION_DDOT = 0

CCSDS_OMM_VERS = 2.0
CREATION_DATE  = 
ORIGINATOR     = 

OBJECT_NAME    = UNKNOWN
OBJECT_ID      = 
CENTER_NAME    = EARTH
REF_FRAME      = TEME
TIME_SYSTEM    = UTC
MEAN_ELEMENT_THEORY = SGP/SGP4

EPOCH          = 2025-11-28T11:53:07.761408
MEAN_MOTION    = 2.00219125
ECCENTRICITY   = .74552533
INCLINATION    = 62.1313
RA_OF_ASC_NODE = 113.3915
ARG_OF_PERICENTER = 47.3363
MEAN_ANOMALY   = 354.7946

EPHEMERIS_TYPE = 0
CLASSIFICATION_TYPE = U
NORAD_CAT_ID   = 270365
ELEMENT_SET_NO = 999
REV_AT_EPOCH   = 1708
BSTAR          = .15097849E-2
MEAN_MOTION_DOT = .2109E-4
MEAN_MOTION_DDOT = 0

CCSDS_OMM_VERS = 2.0
CREATION_DATE  = 
ORIGINATOR     = 

OBJECT_NAME    = UNKNOWN
OBJECT_ID      = 
CENTER_NAME    = EARTH
REF_FRAME      = TEME
TIME_SYSTEM    = UTC
MEAN_ELEMENT_THEORY = SGP/SGP4

EPOCH          = 2025-11-26T14:24:50.888736
MEAN_MOTION    = 13.13961882
ECCENTRICITY   = .00826261
INCLINATION    = 103.0877
RA_OF_ASC_NODE = 98.5807
ARG_OF_PERICENTER = 298.4778
MEAN_ANOMALY   = 60.8019

EPHEMERIS_TYPE = 0
CLASSIFICATION_TYPE = U
NORAD_CAT_ID   = 270376
ELEMENT_SET_NO = 999
REV_AT_EPOCH   = 14051
BSTAR          = .24565001E-1
MEAN_MOTION_DOT = .9151E-4
MEAN_MOTION_DDOT = 0

CCSDS_OMM_VERS = 2.0
CREATION_DATE  = 
ORIGINATOR     = 

OBJECT_NAME    = UNKNOWN
OBJECT_ID      = 
CENTER_NAME    = EARTH
REF_FRAME      = TEME
TIME_SYSTEM    = UTC
MEAN_ELEMENT_THEORY = SGP/SGP4

EPOCH          = 2025-11-28T07:58:32.909376
MEAN_MOTION    = 13.20126954
ECCENTRICITY   = .04195504
INCLINATION    = 82.5485
RA_OF_ASC_NODE = 348.2362
ARG_OF_PERICENTER = 291.0513
MEAN_ANOMALY   = 64.6231

EPHEMERIS_TYPE = 0
CLASSIFICATION_TYPE = U
NORAD_CAT_ID   = 270378
ELEMENT_SET_NO = 999
REV_AT_EPOCH   = 13956
BSTAR          = .11902919E-2
MEAN_MOTION_DOT = .767E-5
MEAN_MOTION_DDOT = 0

CCSDS_OMM_VERS = 2.0
CREATION_DATE  = 
ORIGINATOR     = 

OBJECT_NAME    = UNKNOWN
OBJECT_ID      = 
CENTER_NAME    = EARTH
REF_FRAME      = TEME
TIME_SYSTEM    = UTC
MEAN_ELEMENT_THEORY = SGP/SGP4

EPOCH          = 2025-11-29T03:29:54.623040
MEAN_MOTION    = 14.18899765
ECCENTRICITY   = .00159883
INCLINATION    = 81.2084
RA_OF_ASC_NODE = 126.1310
ARG_OF_PERICENTER = 187.9713
MEAN_ANOMALY   = 172.1212

EPHEMERIS_TYPE = 0
CLASSIFICATION_TYPE = U
NORAD_CAT_ID   = 270387
ELEMENT_SET_NO = 999
REV_AT_EPOCH   = 13166
BSTAR          = .35099445E-2
MEAN_MOTION_DOT = .7333E-4
MEAN_MOTION_DDOT = 0

CCSDS_OMM_VERS = 2.0
CREATION_DATE  = 
ORIGINATOR     = 

OBJECT_NAME    = UNKNOWN
OBJECT_ID      = 
CENTER_NAME    = EARTH
REF_FRAME      = TEME
TIME_SYSTEM    = UTC
MEAN_ELEMENT_THEORY = SGP/SGP4

EPOCH          = 2025-11-29T04:39:05.201280
MEAN_MOTION    = 14.03075920
ECCENTRICITY   = .01279891
INCLINATION    = 89.1837
RA_OF_ASC_NODE = 308.8241
ARG_OF_PERICENTER = 137.1026
MEAN_ANOMALY   = 224.0225

EPHEMERIS_TYPE = 0
CLASSIFICATION_TYPE = U
NORAD_CAT_ID   = 270408
ELEMENT_SET_NO = 999
REV_AT_EPOCH   = 1759
BSTAR          = .21548599E-3
MEAN_MOTION_DOT = .374E-5
MEAN_MOTION_DDOT = 0

CCSDS_OMM_VERS = 2.0
CREATION_DATE  = 
ORIGINATOR     = 

OBJECT_NAME    = UNKNOWN
OBJECT_ID      = 
CENTER_NAME    = EARTH
REF_FRAME      = TEME
TIME_SYSTEM    = UTC
MEAN_ELEMENT_THEORY = SGP/SGP4

EPOCH          = 2025-11-29T06:36:24.427872
MEAN_MOTION    = 14.70205583
ECCENTRICITY   = .01451966
INCLINATION    = 88.7462
RA_OF_ASC_NODE = 277.5986
ARG_OF_PERICENTER = 163.3186
MEAN_ANOMALY   = 197.2885

EPHEMERIS_TYPE = 0
CLASSIFICATION_TYPE = U
NORAD_CAT_ID   = 270413
ELEMENT_SET_NO = 999
REV_AT_EPOCH   = 6990
BSTAR          = .39878116E-3
MEAN_MOTION_DOT = .2852E-4
MEAN_MOTION_DDOT = 0

CCSDS_OMM_VERS = 2.0
CREATION_DATE  = 
ORIGINATOR     = 

OBJECT_NAME    = UNKNOWN
OBJECT_ID      = 
CENTER_NAME    = EARTH
REF_FRAME      = TEME
TIME_SYSTEM    = UTC
MEAN_ELEMENT_THEORY = SGP/SGP4

EPOCH          = 2025-11-28T02:07:00.020352
MEAN_MOTION    = 14.65831088
ECCENTRICITY   = .01320365
INCLINATION    = 88.4822
RA_OF_ASC_NODE = 262.9556
ARG_OF_PERICENTER = 147.3717
MEAN_ANOMALY   = 213.5746

EPHEMERIS_TYPE = 0
CLASSIFICATION_TYPE = U
NORAD_CAT_ID   = 270425
ELEMENT_SET_NO = 999
REV_AT_EPOCH   = 6792
BSTAR          = .13085722E-2
MEAN_MOTION_DOT = .8154E-4
MEAN_MOTION_DDOT = 0

CCSDS_OMM_VERS = 2.0
CREATION_DATE  = 
ORIGINATOR     = 

OBJECT_NAME    = UNKNOWN
OBJECT_ID      = 
CENTER_NAME    = EARTH
REF_FRAME      = TEME
TIME_SYSTEM    = UTC
MEAN_ELEMENT_THEORY = SGP/SGP4

EPOCH          = 2025-11-28T23:29:55.027968
MEAN_MOTION    = 14.33876963
ECCENTRICITY   = .00104873
INCLINATION    = 87.8640
RA_OF_ASC_NODE = 231.3379
ARG_OF_PERICENTER = 127.9351
MEAN_ANOMALY   = 232.2795

EPHEMERIS_TYPE = 0
CLASSIFICATION_TYPE = U
NORAD_CAT_ID   = 270429
ELEMENT_SET_NO = 999
REV_AT_EPOCH   = 6670
BSTAR          = .1102684E-2
MEAN_MOTION_DOT = .3088E-4
MEAN_MOTION_DDOT = 0

